{
  "type": "FeatureCollection",
  "features": [
    {
      "type": "Feature",
      "id": 8,
      "geometry": {
        "type": "LineString",
        "coordinates": [
          [
            -118.14190654799995,
            33.977371852000033
          ],
          [
            -118.14257289999995,
            33.977644700000042
          ],
          [
            -118.14304259999994,
            33.977837000000079
          ],
          [
            -118.14339699999999,
            33.977281800000071
          ],
          [
            -118.14459499999998,
            33.977412000000072
          ],
          [
            -118.14474519999999,
            33.97742530000005
          ],
          [
            -118.14526379999995,
            33.977463800000066
          ],
          [
            -118.14550619999994,
            33.977483300000074
          ],
          [
            -118.14623769999997,
            33.977542200000073
          ],
          [
            -118.14676899999995,
            33.977585000000033
          ],
          [
            -118.14694879999996,
            33.97760420000003
          ],
          [
            -118.14757239999994,
            33.977671000000043
          ],
          [
            -118.14779699999997,
            33.97769500000004
          ],
          [
            -118.14900649999998,
            33.977829900000074
          ],
          [
            -118.14965499999994,
            33.977867400000036
          ],
          [
            -118.15040899999997,
            33.977959000000055
          ],
          [
            -118.15062409999996,
            33.977982600000075
          ],
          [
            -118.15145489999998,
            33.978068500000063
          ],
          [
            -118.15215759999995,
            33.978140200000041
          ],
          [
            -118.15377439999997,
            33.978350200000079
          ],
          [
            -118.15411129999995,
            33.97838820000004
          ],
          [
            -118.15489639999998,
            33.978470500000071
          ],
          [
            -118.15633379999997,
            33.978618100000062
          ],
          [
            -118.15730249999996,
            33.978717800000027
          ],
          [
            -118.15802869999999,
            33.978792400000032
          ],
          [
            -118.15920669999997,
            33.978918200000066
          ],
          [
            -118.15937099999996,
            33.978936000000033
          ],
          [
            -118.15985019999999,
            33.978982600000052
          ],
          [
            -118.16090089999994,
            33.979105700000048
          ],
          [
            -118.16124989999997,
            33.979150600000025
          ],
          [
            -118.16162849999995,
            33.979199100000073
          ],
          [
            -118.16214059999999,
            33.979251100000056
          ],
          [
            -118.16259539999999,
            33.979297200000076
          ],
          [
            -118.16301699999997,
            33.979340000000036
          ],
          [
            -118.16314899999998,
            33.979351000000065
          ],
          [
            -118.16318799999999,
            33.979113000000041
          ],
          [
            -118.16319709999999,
            33.978972400000032
          ],
          [
            -118.16323919999996,
            33.978770300000065
          ],
          [
            -118.16327359999997,
            33.978543000000059
          ],
          [
            -118.16329959999996,
            33.978372000000036
          ],
          [
            -118.16332239999997,
            33.978231400000027
          ],
          [
            -118.16333079999998,
            33.978179500000067
          ],
          [
            -118.16338489999998,
            33.97784740000003
          ],
          [
            -118.16352699999999,
            33.976929000000041
          ],
          [
            -118.16356239999999,
            33.976700700000038
          ],
          [
            -118.16361009999997,
            33.976392600000054
          ],
          [
            -118.16364959999999,
            33.97613750000005
          ],
          [
            -118.16366699999998,
            33.97602500000005
          ],
          [
            -118.16369849999995,
            33.975806300000045
          ],
          [
            -118.16373399999998,
            33.97556000000003
          ],
          [
            -118.16374399999995,
            33.975505000000055
          ],
          [
            -118.16378289999994,
            33.975218400000074
          ],
          [
            -118.16385489999999,
            33.974699600000065
          ],
          [
            -118.16387489999994,
            33.974559600000077
          ],
          [
            -118.16391299999998,
            33.974293000000046
          ],
          [
            -118.16395629999994,
            33.97398830000003
          ],
          [
            -118.16414549999996,
            33.972654900000066
          ],
          [
            -118.16418249999998,
            33.972394200000053
          ],
          [
            -118.16421959999997,
            33.972106000000053
          ],
          [
            -118.16423779999997,
            33.971976400000074
          ],
          [
            -118.16424799999999,
            33.971903300000065
          ],
          [
            -118.16431669999997,
            33.971572400000071
          ],
          [
            -118.16440259999996,
            33.971027400000025
          ],
          [
            -118.16447769999996,
            33.970522500000072
          ],
          [
            -118.16451249999994,
            33.970322300000078
          ],
          [
            -118.16459029999999,
            33.969861800000047
          ],
          [
            -118.16475059999999,
            33.968810800000028
          ],
          [
            -118.16477269999996,
            33.968578300000047
          ],
          [
            -118.16479899999996,
            33.968194600000061
          ],
          [
            -118.16481799999997,
            33.967917000000057
          ],
          [
            -118.16491109999998,
            33.967925100000059
          ],
          [
            -118.16497909999998,
            33.967931100000044
          ],
          [
            -118.16507999999999,
            33.967940000000056
          ],
          [
            -118.16526479999999,
            33.967953600000044
          ],
          [
            -118.16536699999995,
            33.967963500000053
          ],
          [
            -118.16564959999999,
            33.967988800000057
          ],
          [
            -118.16594199999997,
            33.968015000000037
          ],
          [
            -118.16606499999995,
            33.967974000000027
          ],
          [
            -118.16720699999996,
            33.96809600000006
          ],
          [
            -118.16749899999996,
            33.968129700000077
          ],
          [
            -118.16754439999994,
            33.968128300000046
          ],
          [
            -118.16767189999996,
            33.968141500000058
          ],
          [
            -118.16787189999997,
            33.96816350000006
          ],
          [
            -118.16804819999999,
            33.968183600000032
          ],
          [
            -118.16821689999995,
            33.968208000000061
          ],
          [
            -118.16883919999998,
            33.968469500000026
          ],
          [
            -118.16885199999996,
            33.969106000000068
          ],
          [
            -118.16856499999994,
            33.969376000000068
          ],
          [
            -118.16834899999998,
            33.969388000000038
          ],
          [
            -118.16802599999994,
            33.969164000000035
          ],
          [
            -118.16798299999999,
            33.968718000000024
          ],
          [
            -118.16804819999999,
            33.968183600000032
          ],
          [
            -118.16813599999995,
            33.967647000000056
          ],
          [
            -118.16882999999996,
            33.965597000000059
          ],
          [
            -118.16914929999996,
            33.964574800000037
          ],
          [
            -118.16948529999996,
            33.963834900000052
          ],
          [
            -118.16956599999997,
            33.963624000000038
          ],
          [
            -118.16978099999994,
            33.962929000000031
          ],
          [
            -118.17039699999998,
            33.958972000000074
          ],
          [
            -118.17057939999995,
            33.957358000000056
          ],
          [
            -118.17074609999997,
            33.954385700000046
          ],
          [
            -118.17074799999995,
            33.954198000000076
          ],
          [
            -118.17075059999996,
            33.95406950000006
          ],
          [
            -118.17074449999996,
            33.953836200000069
          ],
          [
            -118.17071439999995,
            33.952802900000052
          ],
          [
            -118.17057499999999,
            33.950316000000043
          ],
          [
            -118.17053999999996,
            33.949798000000044
          ],
          [
            -118.17050999999998,
            33.949382000000071
          ],
          [
            -118.17056399999996,
            33.947170000000028
          ],
          [
            -118.17075199999999,
            33.945732000000078
          ],
          [
            -118.17078749999996,
            33.945475300000055
          ],
          [
            -118.17085369999995,
            33.944973000000061
          ],
          [
            -118.17093599999998,
            33.944409600000029
          ],
          [
            -118.17100559999994,
            33.943863600000043
          ],
          [
            -118.17121099999997,
            33.942281000000037
          ],
          [
            -118.17149599999999,
            33.94040300000006
          ],
          [
            -118.17205999999999,
            33.938937000000067
          ],
          [
            -118.17208199999999,
            33.938894000000062
          ],
          [
            -118.17291199999994,
            33.937697000000071
          ],
          [
            -118.17387199999996,
            33.936794000000077
          ],
          [
            -118.17508689999994,
            33.935939900000051
          ],
          [
            -118.17527999999999,
            33.935808000000065
          ],
          [
            -118.17614099999997,
            33.93521700000008
          ],
          [
            -118.17666609999998,
            33.934817000000066
          ],
          [
            -118.17692429999994,
            33.934582200000079
          ],
          [
            -118.17707499999995,
            33.934441000000049
          ],
          [
            -118.17786149999995,
            33.933491100000026
          ],
          [
            -118.17838219999999,
            33.932584000000077
          ],
          [
            -118.17844299999996,
            33.932464000000039
          ],
          [
            -118.17862799999995,
            33.932008000000053
          ],
          [
            -118.17891199999997,
            33.930939000000023
          ],
          [
            -118.17892609999996,
            33.930854400000044
          ],
          [
            -118.17891399999996,
            33.929141000000072
          ],
          [
            -118.17820629999994,
            33.926768000000038
          ],
          [
            -118.17794099999998,
            33.925766000000067
          ],
          [
            -118.17791669999997,
            33.925404600000036
          ],
          [
            -118.17789849999997,
            33.925081200000079
          ],
          [
            -118.17786999999998,
            33.924350000000061
          ],
          [
            -118.17812799999996,
            33.922812000000079
          ],
          [
            -118.17832099999998,
            33.921856000000048
          ],
          [
            -118.17849059999998,
            33.921059000000071
          ],
          [
            -118.17910609999996,
            33.918076600000063
          ],
          [
            -118.17916909999997,
            33.917768600000045
          ],
          [
            -118.17955299999994,
            33.915939000000037
          ],
          [
            -118.17995499999995,
            33.91397500000005
          ],
          [
            -118.18008499999996,
            33.913319000000058
          ],
          [
            -118.18013199999996,
            33.913043000000073
          ],
          [
            -118.18017199999997,
            33.912854000000038
          ],
          [
            -118.18020599999994,
            33.912709000000063
          ],
          [
            -118.18040799999994,
            33.911787000000061
          ],
          [
            -118.18076699999995,
            33.910203000000024
          ],
          [
            -118.18133009999997,
            33.908808500000077
          ],
          [
            -118.18206519999995,
            33.90761800000007
          ],
          [
            -118.18280199999998,
            33.906712000000027
          ],
          [
            -118.18314049999998,
            33.906342700000039
          ],
          [
            -118.18503239999995,
            33.904429600000071
          ],
          [
            -118.18558479999996,
            33.903729600000077
          ],
          [
            -118.18562529999997,
            33.903678700000057
          ],
          [
            -118.18570909999994,
            33.903560600000048
          ],
          [
            -118.18664619999998,
            33.901597700000025
          ],
          [
            -118.18710899999996,
            33.900066500000037
          ],
          [
            -118.18722549999995,
            33.899535700000058
          ],
          [
            -118.18729999999999,
            33.899099300000046
          ],
          [
            -118.18736829999995,
            33.898672900000065
          ],
          [
            -118.18744059999995,
            33.898185400000045
          ],
          [
            -118.18756089999999,
            33.897373400000049
          ],
          [
            -118.18768319999998,
            33.896557800000039
          ],
          [
            -118.18773359999994,
            33.896229900000037
          ],
          [
            -118.18792859999996,
            33.894898300000079
          ],
          [
            -118.18853539999998,
            33.890793500000029
          ],
          [
            -118.18901859999994,
            33.889087500000073
          ],
          [
            -118.18906199999998,
            33.888965100000064
          ],
          [
            -118.19083119999999,
            33.884890700000028
          ],
          [
            -118.19132809999996,
            33.883630500000038
          ],
          [
            -118.19152889999998,
            33.882894000000078
          ],
          [
            -118.19178759999994,
            33.88165760000004
          ],
          [
            -118.19212699999997,
            33.880225100000075
          ],
          [
            -118.19234989999995,
            33.879296300000078
          ],
          [
            -118.19251969999999,
            33.878598200000056
          ],
          [
            -118.19273689999994,
            33.878103800000076
          ],
          [
            -118.19323359999999,
            33.876756200000045
          ],
          [
            -118.19402999999994,
            33.875764000000061
          ],
          [
            -118.19409699999994,
            33.875699000000054
          ],
          [
            -118.19627229999998,
            33.874387300000024
          ],
          [
            -118.19655769999997,
            33.874242200000026
          ],
          [
            -118.19693289999998,
            33.87401390000008
          ],
          [
            -118.19733629999996,
            33.873843900000054
          ],
          [
            -118.19894629999999,
            33.873237000000074
          ],
          [
            -118.20036019999998,
            33.87291220000003
          ],
          [
            -118.20060099999995,
            33.872875100000044
          ],
          [
            -118.20221849999996,
            33.872755200000029
          ],
          [
            -118.20239459999999,
            33.872757300000046
          ],
          [
            -118.20246509999998,
            33.87275900000003
          ],
          [
            -118.20265109999997,
            33.872765100000038
          ],
          [
            -118.20495869999996,
            33.873069000000044
          ],
          [
            -118.20712169999996,
            33.873541700000033
          ],
          [
            -118.20725869999995,
            33.873563900000079
          ],
          [
            -118.20914159999995,
            33.87370530000004
          ],
          [
            -118.21038809999999,
            33.873682500000029
          ],
          [
            -118.21314749999999,
            33.873616800000036
          ],
          [
            -118.21442839999997,
            33.873585800000058
          ],
          [
            -118.21481849999998,
            33.873577300000079
          ],
          [
            -118.21655859999998,
            33.873556700000051
          ],
          [
            -118.21661889999996,
            33.873557800000071
          ],
          [
            -118.21682179999999,
            33.873560600000076
          ],
          [
            -118.21691959999998,
            33.873563100000069
          ],
          [
            -118.21747449999998,
            33.873581200000046
          ],
          [
            -118.21770119999996,
            33.873593400000061
          ],
          [
            -118.21809089999999,
            33.873618500000077
          ],
          [
            -118.21880709999999,
            33.873677500000042
          ],
          [
            -118.22102119999994,
            33.873891800000024
          ],
          [
            -118.22218059999994,
            33.874020400000063
          ],
          [
            -118.22463839999995,
            33.874123600000075
          ],
          [
            -118.22475059999999,
            33.874120800000071
          ],
          [
            -118.22482819999999,
            33.874119700000051
          ],
          [
            -118.22960249999994,
            33.873998300000039
          ],
          [
            -118.23022819999994,
            33.873977700000069
          ],
          [
            -118.23144859999996,
            33.873942100000079
          ],
          [
            -118.23598139999996,
            33.873807500000055
          ],
          [
            -118.23612939999998,
            33.873800600000038
          ],
          [
            -118.24211239999994,
            33.873638600000049
          ],
          [
            -118.24375899999995,
            33.873595800000032
          ],
          [
            -118.24589489999994,
            33.873535100000026
          ],
          [
            -118.24736809999996,
            33.873492100000078
          ],
          [
            -118.24860389999998,
            33.873515900000029
          ],
          [
            -118.24877849999996,
            33.873518000000047
          ],
          [
            -118.25195319999995,
            33.873731100000043
          ],
          [
            -118.25266439999996,
            33.873777500000074
          ],
          [
            -118.25445599999995,
            33.873810000000049
          ],
          [
            -118.25768669999997,
            33.873721500000045
          ],
          [
            -118.25777509999995,
            33.873718900000028
          ],
          [
            -118.26393299999995,
            33.873530000000073
          ],
          [
            -118.26504179999995,
            33.873474300000055
          ],
          [
            -118.26546839999997,
            33.873433300000045
          ],
          [
            -118.26572299999998,
            33.873405700000035
          ],
          [
            -118.26601379999994,
            33.873381300000062
          ],
          [
            -118.26630399999999,
            33.873348000000078
          ],
          [
            -118.26774299999994,
            33.873139200000026
          ],
          [
            -118.26800049999997,
            33.873092400000075
          ],
          [
            -118.27093299999996,
            33.872672100000045
          ],
          [
            -118.27204259999996,
            33.872699400000045
          ],
          [
            -118.27301079999995,
            33.872732800000051
          ],
          [
            -118.27376449999997,
            33.872751700000038
          ],
          [
            -118.27523259999998,
            33.872891100000061
          ],
          [
            -118.27540129999994,
            33.872903300000075
          ],
          [
            -118.27548859999996,
            33.872906000000057
          ],
          [
            -118.27555899999999,
            33.872909100000072
          ],
          [
            -118.27576179999994,
            33.872919700000068
          ],
          [
            -118.27666119999998,
            33.872960800000044
          ],
          [
            -118.27831999999995,
            33.873062000000061
          ],
          [
            -118.27850899999999,
            33.873066000000051
          ],
          [
            -118.27888299999995,
            33.87308900000005
          ],
          [
            -118.27961599999998,
            33.873110000000054
          ],
          [
            -118.28185799999994,
            33.873118000000034
          ],
          [
            -118.28197399999999,
            33.873125000000073
          ],
          [
            -118.28229299999998,
            33.873128000000065
          ],
          [
            -118.28333099999998,
            33.873059000000069
          ],
          [
            -118.28403399999996,
            33.872845000000041
          ],
          [
            -118.28430769999994,
            33.87270970000003
          ],
          [
            -118.28451469999999,
            33.87258120000007
          ],
          [
            -118.28456689999996,
            33.872542400000043
          ],
          [
            -118.28479899999996,
            33.872359000000074
          ],
          [
            -118.28508899999997,
            33.872080000000039
          ],
          [
            -118.28517699999998,
            33.87197800000007
          ],
          [
            -118.28545099999997,
            33.871576000000061
          ],
          [
            -118.28574299999997,
            33.870697000000064
          ],
          [
            -118.28567899999996,
            33.86975700000005
          ],
          [
            -118.28557099999995,
            33.869139000000075
          ],
          [
            -118.28552399999995,
            33.868935000000079
          ],
          [
            -118.28547479999997,
            33.868680300000051
          ],
          [
            -118.28541199999995,
            33.868351000000075
          ],
          [
            -118.28534799999994,
            33.868011000000024
          ],
          [
            -118.28526699999998,
            33.867212000000052
          ],
          [
            -118.28514089999999,
            33.864189200000055
          ],
          [
            -118.28525399999995,
            33.862803500000041
          ],
          [
            -118.28526779999999,
            33.862502000000063
          ],
          [
            -118.28527159999999,
            33.862123600000075
          ],
          [
            -118.28517599999998,
            33.861317000000042
          ],
          [
            -118.28515329999999,
            33.861196300000074
          ],
          [
            -118.28513899999996,
            33.861070000000041
          ],
          [
            -118.28492449999999,
            33.85959710000003
          ],
          [
            -118.28479199999998,
            33.857539000000031
          ],
          [
            -118.28479599999997,
            33.857388000000071
          ],
          [
            -118.28480399999995,
            33.857204000000024
          ],
          [
            -118.28480839999997,
            33.857069900000056
          ],
          [
            -118.28481949999997,
            33.856882800000051
          ],
          [
            -118.28483499999999,
            33.856647000000066
          ],
          [
            -118.28485499999999,
            33.856249000000048
          ],
          [
            -118.28487199999995,
            33.855943000000025
          ],
          [
            -118.28491339999999,
            33.855265300000042
          ],
          [
            -118.28501249999999,
            33.853479500000049
          ],
          [
            -118.28506089999996,
            33.852255500000069
          ],
          [
            -118.28506699999997,
            33.85129900000004
          ],
          [
            -118.28506469999996,
            33.850158500000077
          ],
          [
            -118.28506399999998,
            33.849808000000053
          ],
          [
            -118.28506329999999,
            33.849730800000032
          ],
          [
            -118.28508339999996,
            33.848064500000078
          ],
          [
            -118.28511019999996,
            33.847380400000077
          ],
          [
            -118.28512749999999,
            33.846938300000033
          ],
          [
            -118.28516799999994,
            33.846576000000027
          ],
          [
            -118.28517699999998,
            33.846469900000045
          ],
          [
            -118.28518759999997,
            33.846378100000038
          ],
          [
            -118.28519799999998,
            33.846313700000053
          ],
          [
            -118.28520969999994,
            33.846170800000039
          ],
          [
            -118.28532799999999,
            33.845627000000036
          ],
          [
            -118.28553999999997,
            33.844776000000024
          ],
          [
            -118.28555309999996,
            33.844728400000065
          ],
          [
            -118.28621499999997,
            33.842053000000078
          ],
          [
            -118.28632499999998,
            33.841597000000036
          ],
          [
            -118.28650699999997,
            33.840855000000033
          ],
          [
            -118.28657399999997,
            33.840582900000072
          ],
          [
            -118.28666019999997,
            33.840248600000052
          ],
          [
            -118.28730199999995,
            33.837606000000051
          ],
          [
            -118.28748149999996,
            33.835618900000043
          ],
          [
            -118.28748399999995,
            33.835284000000058
          ],
          [
            -118.28748129999997,
            33.834940500000073
          ],
          [
            -118.28747789999994,
            33.834493800000075
          ],
          [
            -118.28747699999997,
            33.831594000000052
          ],
          [
            -118.28747799999996,
            33.830352000000062
          ],
          [
            -118.28747499999997,
            33.828415000000064
          ],
          [
            -118.28747399999997,
            33.826686800000061
          ],
          [
            -118.28747399999997,
            33.825006400000063
          ],
          [
            -118.28747399999997,
            33.824486000000036
          ],
          [
            -118.28747499999997,
            33.824373000000037
          ],
          [
            -118.28747069999997,
            33.823502100000042
          ],
          [
            -118.28747069999997,
            33.823028500000078
          ],
          [
            -118.28747029999994,
            33.822334100000035
          ],
          [
            -118.28747019999997,
            33.822175200000061
          ],
          [
            -118.28746919999998,
            33.820837700000027
          ],
          [
            -118.28747079999999,
            33.820089400000029
          ],
          [
            -118.28746099999995,
            33.818937000000062
          ],
          [
            -118.28747009999995,
            33.812624200000073
          ],
          [
            -118.28746579999995,
            33.811532200000045
          ],
          [
            -118.28762399999999,
            33.809497000000079
          ],
          [
            -118.28768099999996,
            33.809178000000031
          ],
          [
            -118.28768799999995,
            33.80914400000006
          ],
          [
            -118.28771799999998,
            33.809010000000058
          ],
          [
            -118.28782399999994,
            33.808552000000077
          ],
          [
            -118.28808979999997,
            33.807370000000049
          ],
          [
            -118.28849499999995,
            33.805582000000072
          ],
          [
            -118.28869519999995,
            33.80471650000004
          ],
          [
            -118.28892999999999,
            33.803706000000034
          ],
          [
            -118.28909599999997,
            33.802662000000055
          ],
          [
            -118.28906099999995,
            33.801568000000032
          ],
          [
            -118.28880699999996,
            33.800490000000025
          ],
          [
            -118.28835699999996,
            33.79945900000007
          ],
          [
            -118.28824899999995,
            33.79927500000008
          ],
          [
            -118.28770999999995,
            33.798498000000052
          ],
          [
            -118.28706199999999,
            33.797813000000076
          ],
          [
            -118.28693899999996,
            33.797690000000046
          ],
          [
            -118.28681669999997,
            33.797573300000067
          ],
          [
            -118.28590399999996,
            33.796632000000045
          ],
          [
            -118.28472999999997,
            33.794936000000064
          ],
          [
            -118.28423699999996,
            33.794187000000079
          ],
          [
            -118.28406799999999,
            33.793918000000076
          ],
          [
            -118.28347199999996,
            33.793017000000077
          ],
          [
            -118.28224199999994,
            33.790741000000025
          ],
          [
            -118.28217699999999,
            33.790570000000059
          ],
          [
            -118.28215619999997,
            33.790509300000053
          ],
          [
            -118.28179399999999,
            33.789182000000039
          ],
          [
            -118.28135699999996,
            33.786284000000023
          ],
          [
            -118.28130699999997,
            33.786004000000048
          ],
          [
            -118.28125099999994,
            33.785617000000059
          ],
          [
            -118.28100339999997,
            33.783975700000042
          ],
          [
            -118.28033999999997,
            33.779002000000048
          ],
          [
            -118.28009999999995,
            33.775863000000072
          ],
          [
            -118.28000099999997,
            33.77466400000003
          ],
          [
            -118.27998199999996,
            33.774456000000043
          ],
          [
            -118.27992199999994,
            33.773630000000026
          ],
          [
            -118.28003099999995,
            33.77192000000008
          ],
          [
            -118.28004299999998,
            33.771865000000048
          ],
          [
            -118.28005299999995,
            33.771820000000048
          ],
          [
            -118.28019699999999,
            33.771322000000055
          ],
          [
            -118.28103999999996,
            33.76936470000004
          ],
          [
            -118.28109899999998,
            33.769243000000074
          ],
          [
            -118.28113289999999,
            33.769169900000065
          ],
          [
            -118.28133899999995,
            33.768743000000029
          ],
          [
            -118.28162399999997,
            33.768157000000031
          ],
          [
            -118.28230099999996,
            33.766749000000061
          ],
          [
            -118.28342199999997,
            33.764481000000046
          ],
          [
            -118.28428999999994,
            33.763325000000066
          ],
          [
            -118.28525599999995,
            33.762477000000047
          ],
          [
            -118.28848099999999,
            33.760155000000054
          ],
          [
            -118.29001999999997,
            33.758328000000063
          ],
          [
            -118.29054909999996,
            33.757300600000065
          ],
          [
            -118.29118599999998,
            33.755280000000027
          ],
          [
            -118.29124999999999,
            33.754875000000027
          ],
          [
            -118.29128499999996,
            33.754403000000025
          ],
          [
            -118.29126619999994,
            33.753853900000024
          ],
          [
            -118.29126149999996,
            33.753758600000026
          ],
          [
            -118.29125879999998,
            33.753567600000054
          ],
          [
            -118.29124829999995,
            33.75320750000003
          ],
          [
            -118.29130319999996,
            33.752733800000044
          ],
          [
            -118.29143999999997,
            33.750858000000051
          ],
          [
            -118.29154079999995,
            33.750134100000025
          ],
          [
            -118.29137899999995,
            33.749540000000025
          ],
          [
            -118.29101699999995,
            33.749043000000029
          ],
          [
            -118.29083889999998,
            33.748891700000058
          ],
          [
            -118.28986899999995,
            33.748493000000053
          ],
          [
            -118.28808999999995,
            33.74850900000007
          ],
          [
            -118.28795799999995,
            33.748510000000067
          ],
          [
            -118.28786499999995,
            33.748512000000062
          ],
          [
            -118.28729329999999,
            33.748533300000076
          ],
          [
            -118.28623099999999,
            33.748559000000057
          ],
          [
            -118.28516999999999,
            33.748508000000072
          ],
          [
            -118.28431899999998,
            33.748465000000067
          ],
          [
            -118.28286599999996,
            33.747975000000054
          ],
          [
            -118.28144769999994,
            33.748307800000077
          ],
          [
            -118.28094229999999,
            33.748431500000038
          ],
          [
            -118.28050299999995,
            33.748565000000042
          ],
          [
            -118.28022599999997,
            33.748032000000023
          ],
          [
            -118.28016369999995,
            33.747888700000033
          ],
          [
            -118.27980549999995,
            33.747143000000051
          ],
          [
            -118.27972849999998,
            33.746702000000028
          ],
          [
            -118.27972479999994,
            33.746546900000055
          ],
          [
            -118.27972329999994,
            33.74630760000008
          ],
          [
            -118.27972389999996,
            33.745990000000063
          ],
          [
            -118.27971849999994,
            33.745367100000067
          ],
          [
            -118.27971339999999,
            33.744761200000028
          ],
          [
            -118.27970709999994,
            33.74451010000007
          ],
          [
            -118.27970889999995,
            33.744359600000053
          ],
          [
            -118.27971099999996,
            33.744181000000026
          ],
          [
            -118.27970969999996,
            33.743737800000076
          ],
          [
            -118.27970929999998,
            33.743469600000026
          ],
          [
            -118.27970899999997,
            33.743272000000047
          ],
          [
            -118.28004849999996,
            33.743268600000079
          ],
          [
            -118.28016719999999,
            33.743267400000036
          ],
          [
            -118.28041699999994,
            33.743265000000065
          ],
          [
            -118.28133999999994,
            33.743277000000035
          ],
          [
            -118.28140949599998,
            33.743277095000053
          ]
        ]
      },
      "properties": {
        "OBJECTID": 8,
        "Name": "LAX11301 - San Pedro",
        "FirstStopID": 20,
        "LastStopID": 24,
        "StopCount": 2,
        "StartTime": null,
        "EndTime": null,
        "StartTimeUTC": null,
        "EndTimeUTC": null,
        "TotalWait_Minutes": null,
        "TotalWait_TimeAt1KPH": null,
        "TotalWait_TravelTime": null,
        "TotalWait_TruckMinutes": null,
        "TotalWait_TruckTravelTime": null,
        "TotalWait_WalkTime": null,
        "TotalViolation_Minutes": null,
        "TotalViolation_TimeAt1KPH": null,
        "TotalViolation_TravelTime": null,
        "TotalViolation_TruckMinutes": null,
        "TotalViolation_TruckTravelTime": null,
        "TotalViolation_WalkTime": null,
        "Total_Minutes": null,
        "Total_TimeAt1KPH": null,
        "Total_TravelTime": 32.304905998571726,
        "Total_TruckMinutes": null,
        "Total_TruckTravelTime": null,
        "Total_WalkTime": null,
        "Total_Kilometers": 39.362785694914542,
        "Total_Miles": null,
        "Shape_Length": 0.37971270241173022
      }
    },
    {
      "type": "Feature",
      "id": 9,
      "geometry": {
        "type": "LineString",
        "coordinates": [
          [
            19.191040849000046,
            47.362262983000051
          ],
          [
            19.189636667000059,
            47.361166568000044
          ],
          [
            19.187020659000041,
            47.362763103000077
          ],
          [
            19.186674422000067,
            47.362436102000061
          ],
          [
            19.196580632000064,
            47.356530846000055
          ],
          [
            19.197484694000025,
            47.355896080000036
          ],
          [
            19.199235112000054,
            47.356838612000047
          ],
          [
            19.201793414000065,
            47.353857131000041
          ],
          [
            19.212754392000022,
            47.357791458000065
          ],
          [
            19.228003065000053,
            47.364899862000073
          ],
          [
            19.257009938000067,
            47.37521851300005
          ],
          [
            19.294264567000027,
            47.389299171000062
          ],
          [
            19.300176294000039,
            47.391807177000032
          ],
          [
            19.30465487500004,
            47.396106615000065
          ],
          [
            19.29659342900004,
            47.400226909000025
          ],
          [
            19.280828824000025,
            47.407392639000079
          ],
          [
            19.268109654000057,
            47.412766936000025
          ],
          [
            19.252165905000027,
            47.417782947000035
          ],
          [
            19.255646409000065,
            47.418400552000037
          ],
          [
            19.262643646000072,
            47.422251381000081
          ],
          [
            19.264005525000073,
            47.422627072000068
          ],
          [
            19.264616022000041,
            47.423613260000081
          ],
          [
            19.263864641000055,
            47.424787293000065
          ],
          [
            19.261798343000066,
            47.426055249000058
          ],
          [
            19.262033149000047,
            47.42760497200004
          ],
          [
            19.261375691000069,
            47.430375691000052
          ],
          [
            19.260721400000023,
            47.432078500000046
          ]
        ]
      },
      "properties": {
        "OBJECTID": 9,
        "Name": "BUD00201 - BUD Aiport",
        "FirstStopID": null,
        "LastStopID": null,
        "StopCount": null,
        "StartTime": null,
        "EndTime": null,
        "StartTimeUTC": null,
        "EndTimeUTC": null,
        "TotalWait_Minutes": null,
        "TotalWait_TimeAt1KPH": null,
        "TotalWait_TravelTime": null,
        "TotalWait_TruckMinutes": null,
        "TotalWait_TruckTravelTime": null,
        "TotalWait_WalkTime": null,
        "TotalViolation_Minutes": null,
        "TotalViolation_TimeAt1KPH": null,
        "TotalViolation_TravelTime": null,
        "TotalViolation_TruckMinutes": null,
        "TotalViolation_TruckTravelTime": null,
        "TotalViolation_WalkTime": null,
        "Total_Minutes": null,
        "Total_TimeAt1KPH": null,
        "Total_TravelTime": null,
        "Total_TruckMinutes": null,
        "Total_TruckTravelTime": null,
        "Total_WalkTime": null,
        "Total_Kilometers": null,
        "Total_Miles": null,
        "Shape_Length": 0.21663487486701116
      }
    }
  ]
}